SL-14 R/B               
1 18749U 88001B   25324.41395669  .00000611  00000+0  68072-4 0  9999
2 18749  82.5108 298.1490 0016670 237.0940 122.8673 14.85389201 25808
COSMOS 1933             
1 18958U 88020A   25324.19365972  .00003921  00000+0  19778-3 0  9996
2 18958  82.5141 359.1526 0003595 196.8118 163.2996 15.16858487 33624
SL-3 R/B                
1 19046U 88032B   25324.78729082  .00005141  00000+0  25119-3 0  9991
2 19046  97.5057 303.6676 0024882 252.5492 107.3022 15.18426180 35570
SL-16 R/B               
1 19120U 88039B   25324.62132575  .00000132  00000+0  85060-4 0  9996
2 19120  71.0141 299.1657 0020656 153.0470 207.1733 14.19590890942900
COSMOS 1953             
1 19210U 88050A   25324.87928468  .00005285  00000+0  20032-3 0  9991
2 19210  82.5086 267.5089 0013066 138.4571 221.7663 15.26577101 21179
SL-8 R/B                
1 19257U 88053B   25324.44007506  .00000256  00000+0  91530-4 0  9994
2 19257  74.0466 313.8199 0019709 165.3748 306.4998 14.38840630960884
COSMOS 1975             
1 19573U 88093A   25324.68612777  .00008866  00000+0  34308-3 0  9991
2 19573  82.5222 226.8947 0010863 184.7385 175.3753 15.25996517  2777
SL-14 R/B               
1 19574U 88093B   25324.47374830  .00000532  00000+0  58603-4 0  9991
2 19574  82.5293 144.5631 0021796  42.7079 346.4321 14.85515650984829
SL-16 R/B               
1 19650U 88102B   25324.49070536  .00000268  00000+0  15942-3 0  9999
2 19650  71.0010  21.2575 0014333 186.3303 173.7641 14.16132210911430
INTERCOSMOS 24          
1 20261U 89080A   25324.57709326  .00000789  00000+0  22905-3 0  9995
2 20261  82.6057 175.3638 1188370 185.9244 172.6663 12.59386439653066
SL-14 R/B               
1 20262U 89080C   25324.74197751  .00000398  00000+0  11092-3 0  9999
2 20262  82.5938 243.1370 1231088  73.8477 299.4353 12.50388164646535
DELTA 1 R/B             
1 20323U 89089B   25324.49700274  .00000411  00000+0  11026-3 0  9991
2 20323  97.0770 184.2579 0070705 107.2225 253.6727 14.50546217879906
