CCSDS_OMM_VERS = 2.0
CREATION_DATE  = 
ORIGINATOR     = 

OBJECT_NAME    = SL-14 R/B
OBJECT_ID      = 1988-001B
CENTER_NAME    = EARTH
REF_FRAME      = TEME
TIME_SYSTEM    = UTC
MEAN_ELEMENT_THEORY = SGP/SGP4

EPOCH          = 2025-11-20T09:56:05.858016
MEAN_MOTION    = 14.85389201
ECCENTRICITY   = .001667
INCLINATION    = 82.5108
RA_OF_ASC_NODE = 298.1490
ARG_OF_PERICENTER = 237.0940
MEAN_ANOMALY   = 122.8673

EPHEMERIS_TYPE = 0
CLASSIFICATION_TYPE = U
NORAD_CAT_ID   = 18749
ELEMENT_SET_NO = 999
REV_AT_EPOCH   = 2580
BSTAR          = .68072E-4
MEAN_MOTION_DOT = .611E-5
MEAN_MOTION_DDOT = 0

CCSDS_OMM_VERS = 2.0
CREATION_DATE  = 
ORIGINATOR     = 

OBJECT_NAME    = COSMOS 1933
OBJECT_ID      = 1988-020A
CENTER_NAME    = EARTH
REF_FRAME      = TEME
TIME_SYSTEM    = UTC
MEAN_ELEMENT_THEORY = SGP/SGP4

EPOCH          = 2025-11-20T04:38:52.199808
MEAN_MOTION    = 15.16858487
ECCENTRICITY   = .0003595
INCLINATION    = 82.5141
RA_OF_ASC_NODE = 359.1526
ARG_OF_PERICENTER = 196.8118
MEAN_ANOMALY   = 163.2996

EPHEMERIS_TYPE = 0
CLASSIFICATION_TYPE = U
NORAD_CAT_ID   = 18958
ELEMENT_SET_NO = 999
REV_AT_EPOCH   = 3362
BSTAR          = .19777869E-3
MEAN_MOTION_DOT = .3921E-4
MEAN_MOTION_DDOT = 0

CCSDS_OMM_VERS = 2.0
CREATION_DATE  = 
ORIGINATOR     = 

OBJECT_NAME    = SL-3 R/B
OBJECT_ID      = 1988-032B
CENTER_NAME    = EARTH
REF_FRAME      = TEME
TIME_SYSTEM    = UTC
MEAN_ELEMENT_THEORY = SGP/SGP4

EPOCH          = 2025-11-20T18:53:41.926848
MEAN_MOTION    = 15.18426180
ECCENTRICITY   = .0024882
INCLINATION    = 97.5057
RA_OF_ASC_NODE = 303.6676
ARG_OF_PERICENTER = 252.5492
MEAN_ANOMALY   = 107.3022

EPHEMERIS_TYPE = 0
CLASSIFICATION_TYPE = U
NORAD_CAT_ID   = 19046
ELEMENT_SET_NO = 999
REV_AT_EPOCH   = 3557
BSTAR          = .25119E-3
MEAN_MOTION_DOT = .5141E-4
MEAN_MOTION_DDOT = 0

CCSDS_OMM_VERS = 2.0
CREATION_DATE  = 
ORIGINATOR     = 

OBJECT_NAME    = SL-16 R/B
OBJECT_ID      = 1988-039B
CENTER_NAME    = EARTH
REF_FRAME      = TEME
TIME_SYSTEM    = UTC
MEAN_ELEMENT_THEORY = SGP/SGP4

EPOCH          = 2025-11-20T14:54:42.544800
MEAN_MOTION    = 14.19590890
ECCENTRICITY   = .0020656
INCLINATION    = 71.0141
RA_OF_ASC_NODE = 299.1657
ARG_OF_PERICENTER = 153.0470
MEAN_ANOMALY   = 207.1733

EPHEMERIS_TYPE = 0
CLASSIFICATION_TYPE = U
NORAD_CAT_ID   = 19120
ELEMENT_SET_NO = 999
REV_AT_EPOCH   = 94290
BSTAR          = .8506E-4
MEAN_MOTION_DOT = .132E-5
MEAN_MOTION_DDOT = 0

CCSDS_OMM_VERS = 2.0
CREATION_DATE  = 
ORIGINATOR     = 

OBJECT_NAME    = COSMOS 1953
OBJECT_ID      = 1988-050A
CENTER_NAME    = EARTH
REF_FRAME      = TEME
TIME_SYSTEM    = UTC
MEAN_ELEMENT_THEORY = SGP/SGP4

EPOCH          = 2025-11-20T21:06:10.196352
MEAN_MOTION    = 15.26577101
ECCENTRICITY   = .0013066
INCLINATION    = 82.5086
RA_OF_ASC_NODE = 267.5089
ARG_OF_PERICENTER = 138.4571
MEAN_ANOMALY   = 221.7663

EPHEMERIS_TYPE = 0
CLASSIFICATION_TYPE = U
NORAD_CAT_ID   = 19210
ELEMENT_SET_NO = 999
REV_AT_EPOCH   = 2117
BSTAR          = .20032E-3
MEAN_MOTION_DOT = .5285E-4
MEAN_MOTION_DDOT = 0

CCSDS_OMM_VERS = 2.0
CREATION_DATE  = 
ORIGINATOR     = 

OBJECT_NAME    = SL-8 R/B
OBJECT_ID      = 1988-053B
CENTER_NAME    = EARTH
REF_FRAME      = TEME
TIME_SYSTEM    = UTC
MEAN_ELEMENT_THEORY = SGP/SGP4

EPOCH          = 2025-11-20T10:33:42.485184
MEAN_MOTION    = 14.38840630
ECCENTRICITY   = .0019709
INCLINATION    = 74.0466
RA_OF_ASC_NODE = 313.8199
ARG_OF_PERICENTER = 165.3748
MEAN_ANOMALY   = 306.4998

EPHEMERIS_TYPE = 0
CLASSIFICATION_TYPE = U
NORAD_CAT_ID   = 19257
ELEMENT_SET_NO = 999
REV_AT_EPOCH   = 96088
BSTAR          = .9153E-4
MEAN_MOTION_DOT = .256E-5
MEAN_MOTION_DDOT = 0

CCSDS_OMM_VERS = 2.0
CREATION_DATE  = 
ORIGINATOR     = 

OBJECT_NAME    = COSMOS 1975
OBJECT_ID      = 1988-093A
CENTER_NAME    = EARTH
REF_FRAME      = TEME
TIME_SYSTEM    = UTC
MEAN_ELEMENT_THEORY = SGP/SGP4

EPOCH          = 2025-11-20T16:28:01.439328
MEAN_MOTION    = 15.25996517
ECCENTRICITY   = .0010863
INCLINATION    = 82.5222
RA_OF_ASC_NODE = 226.8947
ARG_OF_PERICENTER = 184.7385
MEAN_ANOMALY   = 175.3753

EPHEMERIS_TYPE = 0
CLASSIFICATION_TYPE = U
NORAD_CAT_ID   = 19573
ELEMENT_SET_NO = 999
REV_AT_EPOCH   = 277
BSTAR          = .34308E-3
MEAN_MOTION_DOT = .8866E-4
MEAN_MOTION_DDOT = 0

CCSDS_OMM_VERS = 2.0
CREATION_DATE  = 
ORIGINATOR     = 

OBJECT_NAME    = SL-14 R/B
OBJECT_ID      = 1988-093B
CENTER_NAME    = EARTH
REF_FRAME      = TEME
TIME_SYSTEM    = UTC
MEAN_ELEMENT_THEORY = SGP/SGP4

EPOCH          = 2025-11-20T11:22:11.853120
MEAN_MOTION    = 14.85515650
ECCENTRICITY   = .0021796
INCLINATION    = 82.5293
RA_OF_ASC_NODE = 144.5631
ARG_OF_PERICENTER = 42.7079
MEAN_ANOMALY   = 346.4321

EPHEMERIS_TYPE = 0
CLASSIFICATION_TYPE = U
NORAD_CAT_ID   = 19574
ELEMENT_SET_NO = 999
REV_AT_EPOCH   = 98482
BSTAR          = .58603E-4
MEAN_MOTION_DOT = .532E-5
MEAN_MOTION_DDOT = 0

CCSDS_OMM_VERS = 2.0
CREATION_DATE  = 
ORIGINATOR     = 

OBJECT_NAME    = SL-16 R/B
OBJECT_ID      = 1988-102B
CENTER_NAME    = EARTH
REF_FRAME      = TEME
TIME_SYSTEM    = UTC
MEAN_ELEMENT_THEORY = SGP/SGP4

EPOCH          = 2025-11-20T11:46:36.943104
MEAN_MOTION    = 14.16132210
ECCENTRICITY   = .0014333
INCLINATION    = 71.0010
RA_OF_ASC_NODE = 21.2575
ARG_OF_PERICENTER = 186.3303
MEAN_ANOMALY   = 173.7641

EPHEMERIS_TYPE = 0
CLASSIFICATION_TYPE = U
NORAD_CAT_ID   = 19650
ELEMENT_SET_NO = 999
REV_AT_EPOCH   = 91143
BSTAR          = .15942E-3
MEAN_MOTION_DOT = .268E-5
MEAN_MOTION_DDOT = 0

CCSDS_OMM_VERS = 2.0
CREATION_DATE  = 
ORIGINATOR     = 

OBJECT_NAME    = INTERCOSMOS 24
OBJECT_ID      = 1989-080A
CENTER_NAME    = EARTH
REF_FRAME      = TEME
TIME_SYSTEM    = UTC
MEAN_ELEMENT_THEORY = SGP/SGP4

EPOCH          = 2025-11-20T13:51:00.857664
MEAN_MOTION    = 12.59386439
ECCENTRICITY   = .118837
INCLINATION    = 82.6057
RA_OF_ASC_NODE = 175.3638
ARG_OF_PERICENTER = 185.9244
MEAN_ANOMALY   = 172.6663

EPHEMERIS_TYPE = 0
CLASSIFICATION_TYPE = U
NORAD_CAT_ID   = 20261
ELEMENT_SET_NO = 999
REV_AT_EPOCH   = 65306
BSTAR          = .22905E-3
MEAN_MOTION_DOT = .789E-5
MEAN_MOTION_DDOT = 0

CCSDS_OMM_VERS = 2.0
CREATION_DATE  = 
ORIGINATOR     = 

OBJECT_NAME    = SL-14 R/B
OBJECT_ID      = 1989-080C
CENTER_NAME    = EARTH
REF_FRAME      = TEME
TIME_SYSTEM    = UTC
MEAN_ELEMENT_THEORY = SGP/SGP4

EPOCH          = 2025-11-20T17:48:26.856864
MEAN_MOTION    = 12.50388164
ECCENTRICITY   = .1231088
INCLINATION    = 82.5938
RA_OF_ASC_NODE = 243.1370
ARG_OF_PERICENTER = 73.8477
MEAN_ANOMALY   = 299.4353

EPHEMERIS_TYPE = 0
CLASSIFICATION_TYPE = U
NORAD_CAT_ID   = 20262
ELEMENT_SET_NO = 999
REV_AT_EPOCH   = 64653
BSTAR          = .11092E-3
MEAN_MOTION_DOT = .398E-5
MEAN_MOTION_DDOT = 0

CCSDS_OMM_VERS = 2.0
CREATION_DATE  = 
ORIGINATOR     = 

OBJECT_NAME    = DELTA 1 R/B
OBJECT_ID      = 1989-089B
CENTER_NAME    = EARTH
REF_FRAME      = TEME
TIME_SYSTEM    = UTC
MEAN_ELEMENT_THEORY = SGP/SGP4

EPOCH          = 2025-11-20T11:55:41.036736
MEAN_MOTION    = 14.50546217
ECCENTRICITY   = .0070705
INCLINATION    = 97.0770
RA_OF_ASC_NODE = 184.2579
ARG_OF_PERICENTER = 107.2225
MEAN_ANOMALY   = 253.6727

EPHEMERIS_TYPE = 0
CLASSIFICATION_TYPE = U
NORAD_CAT_ID   = 20323
ELEMENT_SET_NO = 999
REV_AT_EPOCH   = 87990
BSTAR          = .11026E-3
MEAN_MOTION_DOT = .411E-5
MEAN_MOTION_DDOT = 0

